[{"OBJECT_NAME":"APRIZESAT 2","OBJECT_ID":"2004-025A","EPOCH":"2026-03-03T00:50:03.803136","MEAN_MOTION":14.37981995,"ECCENTRICITY":0.0105071,"INCLINATION":98.09,"RA_OF_ASC_NODE":234.0793,"ARG_OF_PERICENTER":209.9796,"MEAN_ANOMALY":149.535,"EPHEMERIS_TYPE":0,"CLASSIFICATION_TYPE":"U","NORAD_CAT_ID":28366,"ELEMENT_SET_NO":999,"REV_AT_EPOCH":13638,"BSTAR":0.000137,"MEAN_MOTION_DOT":3.99e-6,"MEAN_MOTION_DDOT":0},{"OBJECT_NAME":"SAUDICOMSAT 1","OBJECT_ID":"2004-025D","EPOCH":"2026-03-02T22:29:55.336128","MEAN_MOTION":14.5537902,"ECCENTRICITY":0.0031987,"INCLINATION":98.5808,"RA_OF_ASC_NODE":69.1897,"ARG_OF_PERICENTER":351.1922,"MEAN_ANOMALY":8.8709,"EPHEMERIS_TYPE":0,"CLASSIFICATION_TYPE":"U","NORAD_CAT_ID":28369,"ELEMENT_SET_NO":999,"REV_AT_EPOCH":14867,"BSTAR":0.00015284,"MEAN_MOTION_DOT":6.18e-6,"MEAN_MOTION_DDOT":0},{"OBJECT_NAME":"SAUDICOMSAT 2","OBJECT_ID":"2004-025E","EPOCH":"2026-03-02T23:46:25.208256","MEAN_MOTION":14.49902672,"ECCENTRICITY":0.0054867,"INCLINATION":98.6685,"RA_OF_ASC_NODE":71.2181,"ARG_OF_PERICENTER":220.4006,"MEAN_ANOMALY":139.3106,"EPHEMERIS_TYPE":0,"CLASSIFICATION_TYPE":"U","NORAD_CAT_ID":28370,"ELEMENT_SET_NO":999,"REV_AT_EPOCH":14471,"BSTAR":0.00011048,"MEAN_MOTION_DOT":3.85e-6,"MEAN_MOTION_DDOT":0},{"OBJECT_NAME":"APRIZESAT 1","OBJECT_ID":"2004-025G","EPOCH":"2026-03-03T00:23:09.552192","MEAN_MOTION":14.51708621,"ECCENTRICITY":0.0045736,"INCLINATION":98.6343,"RA_OF_ASC_NODE":69.8348,"ARG_OF_PERICENTER":117.3868,"MEAN_ANOMALY":243.199,"EPHEMERIS_TYPE":0,"CLASSIFICATION_TYPE":"U","NORAD_CAT_ID":28372,"ELEMENT_SET_NO":999,"REV_AT_EPOCH":14650,"BSTAR":9.9852e-5,"MEAN_MOTION_DOT":3.57e-6,"MEAN_MOTION_DDOT":0},{"OBJECT_NAME":"NANOSAT-1","OBJECT_ID":"2004-049B","EPOCH":"2026-03-02T23:01:26.710752","MEAN_MOTION":14.79894209,"ECCENTRICITY":0.0002796,"INCLINATION":98.2087,"RA_OF_ASC_NODE":196.1476,"ARG_OF_PERICENTER":274.9487,"MEAN_ANOMALY":85.1405,"EPHEMERIS_TYPE":0,"CLASSIFICATION_TYPE":"U","NORAD_CAT_ID":28493,"ELEMENT_SET_NO":999,"REV_AT_EPOCH":13973,"BSTAR":0.00023392,"MEAN_MOTION_DOT":1.71e-5,"MEAN_MOTION_DDOT":0},{"OBJECT_NAME":"SAUDICOMSAT 7","OBJECT_ID":"2007-012C","EPOCH":"2026-03-02T21:55:45.211008","MEAN_MOTION":14.65957326,"ECCENTRICITY":0.0056021,"INCLINATION":98.3666,"RA_OF_ASC_NODE":33.9472,"ARG_OF_PERICENTER":168.2279,"MEAN_ANOMALY":192.0249,"EPHEMERIS_TYPE":0,"CLASSIFICATION_TYPE":"U","NORAD_CAT_ID":31119,"ELEMENT_SET_NO":999,"REV_AT_EPOCH":686,"BSTAR":0.00015426,"MEAN_MOTION_DOT":8.11e-6,"MEAN_MOTION_DDOT":0},{"OBJECT_NAME":"SAUDICOMSAT 6","OBJECT_ID":"2007-012E","EPOCH":"2026-03-02T20:07:41.428416","MEAN_MOTION":14.62416153,"ECCENTRICITY":0.00708269,"INCLINATION":98.3976,"RA_OF_ASC_NODE":27.4619,"ARG_OF_PERICENTER":298.5266,"MEAN_ANOMALY":60.8816,"EPHEMERIS_TYPE":0,"CLASSIFICATION_TYPE":"U","NORAD_CAT_ID":31121,"ELEMENT_SET_NO":999,"REV_AT_EPOCH":464,"BSTAR":0.00021121412,"MEAN_MOTION_DOT":1.053e-5,"MEAN_MOTION_DDOT":0},{"OBJECT_NAME":"SAUDICOMSAT 5","OBJECT_ID":"2007-012H","EPOCH":"2026-03-02T21:33:48.379104","MEAN_MOTION":14.67985303,"ECCENTRICITY":0.0048822,"INCLINATION":98.3379,"RA_OF_ASC_NODE":34.6994,"ARG_OF_PERICENTER":99.7198,"MEAN_ANOMALY":260.9525,"EPHEMERIS_TYPE":0,"CLASSIFICATION_TYPE":"U","NORAD_CAT_ID":31124,"ELEMENT_SET_NO":999,"REV_AT_EPOCH":800,"BSTAR":0.0001863,"MEAN_MOTION_DOT":1.033e-5,"MEAN_MOTION_DDOT":0},{"OBJECT_NAME":"SAUDICOMSAT 3","OBJECT_ID":"2007-012J","EPOCH":"2026-03-03T04:16:14.826432","MEAN_MOTION":14.70502739,"ECCENTRICITY":0.0040009,"INCLINATION":98.3037,"RA_OF_ASC_NODE":35.5445,"ARG_OF_PERICENTER":28.9506,"MEAN_ANOMALY":331.3907,"EPHEMERIS_TYPE":0,"CLASSIFICATION_TYPE":"U","NORAD_CAT_ID":31125,"ELEMENT_SET_NO":999,"REV_AT_EPOCH":924,"BSTAR":0.0002511,"MEAN_MOTION_DOT":1.488e-5,"MEAN_MOTION_DDOT":0},{"OBJECT_NAME":"SAUDICOMSAT 4","OBJECT_ID":"2007-012L","EPOCH":"2026-03-02T21:47:32.884800","MEAN_MOTION":14.64365548,"ECCENTRICITY":0.0062504,"INCLINATION":98.387,"RA_OF_ASC_NODE":32.3928,"ARG_OF_PERICENTER":229.7644,"MEAN_ANOMALY":129.8081,"EPHEMERIS_TYPE":0,"CLASSIFICATION_TYPE":"U","NORAD_CAT_ID":31127,"ELEMENT_SET_NO":999,"REV_AT_EPOCH":573,"BSTAR":0.00015892,"MEAN_MOTION_DOT":8.1e-6,"MEAN_MOTION_DDOT":0},{"OBJECT_NAME":"APRIZESAT 4","OBJECT_ID":"2009-041D","EPOCH":"2026-03-03T04:20:05.806464","MEAN_MOTION":14.83693098,"ECCENTRICITY":0.0042311,"INCLINATION":98.1499,"RA_OF_ASC_NODE":135.3688,"ARG_OF_PERICENTER":306.4253,"MEAN_ANOMALY":53.3062,"EPHEMERIS_TYPE":0,"CLASSIFICATION_TYPE":"U","NORAD_CAT_ID":35684,"ELEMENT_SET_NO":999,"REV_AT_EPOCH":89564,"BSTAR":0.00012998,"MEAN_MOTION_DOT":1.031e-5,"MEAN_MOTION_DDOT":0},{"OBJECT_NAME":"APRIZESAT 3","OBJECT_ID":"2009-041F","EPOCH":"2026-03-02T22:55:34.851936","MEAN_MOTION":14.95865535,"ECCENTRICITY":0.0063225,"INCLINATION":98.1882,"RA_OF_ASC_NODE":210.2122,"ARG_OF_PERICENTER":58.7086,"MEAN_ANOMALY":302.0304,"EPHEMERIS_TYPE":0,"CLASSIFICATION_TYPE":"U","NORAD_CAT_ID":35686,"ELEMENT_SET_NO":999,"REV_AT_EPOCH":90049,"BSTAR":0.00025136,"MEAN_MOTION_DOT":2.857e-5,"MEAN_MOTION_DDOT":0},{"OBJECT_NAME":"S-NET D","OBJECT_ID":"2018-014G","EPOCH":"2026-03-02T16:13:25.438368","MEAN_MOTION":15.15513803,"ECCENTRICITY":0.00095478,"INCLINATION":97.545,"RA_OF_ASC_NODE":327.1718,"ARG_OF_PERICENTER":36.8925,"MEAN_ANOMALY":323.2962,"EPHEMERIS_TYPE":0,"CLASSIFICATION_TYPE":"U","NORAD_CAT_ID":43186,"ELEMENT_SET_NO":999,"REV_AT_EPOCH":44262,"BSTAR":0.00041162566,"MEAN_MOTION_DOT":7.742e-5,"MEAN_MOTION_DDOT":0},{"OBJECT_NAME":"S-NET B","OBJECT_ID":"2018-014H","EPOCH":"2026-03-03T03:32:33.346752","MEAN_MOTION":15.1549309,"ECCENTRICITY":0.0010018,"INCLINATION":97.5456,"RA_OF_ASC_NODE":327.6233,"ARG_OF_PERICENTER":30.7648,"MEAN_ANOMALY":329.417,"EPHEMERIS_TYPE":0,"CLASSIFICATION_TYPE":"U","NORAD_CAT_ID":43187,"ELEMENT_SET_NO":999,"REV_AT_EPOCH":44269,"BSTAR":0.00041531,"MEAN_MOTION_DOT":7.808e-5,"MEAN_MOTION_DDOT":0},{"OBJECT_NAME":"S-NET A","OBJECT_ID":"2018-014J","EPOCH":"2026-03-03T03:18:03.946752","MEAN_MOTION":15.15527971,"ECCENTRICITY":0.0009955,"INCLINATION":97.5465,"RA_OF_ASC_NODE":327.8029,"ARG_OF_PERICENTER":31.9926,"MEAN_ANOMALY":328.1909,"EPHEMERIS_TYPE":0,"CLASSIFICATION_TYPE":"U","NORAD_CAT_ID":43188,"ELEMENT_SET_NO":999,"REV_AT_EPOCH":44269,"BSTAR":0.00040022,"MEAN_MOTION_DOT":7.529e-5,"MEAN_MOTION_DDOT":0},{"OBJECT_NAME":"S-NET C","OBJECT_ID":"2018-014K","EPOCH":"2026-03-03T03:37:19.680672","MEAN_MOTION":15.15485321,"ECCENTRICITY":0.0011125,"INCLINATION":97.5479,"RA_OF_ASC_NODE":327.8744,"ARG_OF_PERICENTER":23.5048,"MEAN_ANOMALY":336.669,"EPHEMERIS_TYPE":0,"CLASSIFICATION_TYPE":"U","NORAD_CAT_ID":43189,"ELEMENT_SET_NO":999,"REV_AT_EPOCH":44124,"BSTAR":0.00041646,"MEAN_MOTION_DOT":7.83e-5,"MEAN_MOTION_DDOT":0},{"OBJECT_NAME":"SALSAT","OBJECT_ID":"2020-068K","EPOCH":"2026-03-02T22:16:53.037696","MEAN_MOTION":15.28017587,"ECCENTRICITY":0.0008827,"INCLINATION":97.8846,"RA_OF_ASC_NODE":58.6665,"ARG_OF_PERICENTER":325.0587,"MEAN_ANOMALY":35.0071,"EPHEMERIS_TYPE":0,"CLASSIFICATION_TYPE":"U","NORAD_CAT_ID":46495,"ELEMENT_SET_NO":999,"REV_AT_EPOCH":29912,"BSTAR":0.00042811,"MEAN_MOTION_DOT":0.00011638,"MEAN_MOTION_DDOT":0}]
