APRIZESAT 2             
1 28366U 04025A   26062.03476624  .00000399  00000+0  13700-3 0  9998
2 28366  98.0900 234.0793 0105071 209.9796 149.5350 14.37981995136381
SAUDICOMSAT 1           
1 28369U 04025D   26061.93744602  .00000618  00000+0  15284-3 0  9996
2 28369  98.5808  69.1897 0031987 351.1922   8.8709 14.55379020148673
SAUDICOMSAT 2           
1 28370U 04025E   26061.99056954  .00000385  00000+0  11048-3 0  9995
2 28370  98.6685  71.2181 0054867 220.4006 139.3106 14.49902672144712
APRIZESAT 1             
1 28372U 04025G   26062.01608278  .00000357  00000+0  99852-4 0  9992
2 28372  98.6343  69.8348 0045736 117.3868 243.1990 14.51708621146503
NANOSAT-1               
1 28493U 04049B   26061.95933693  .00001710  00000+0  23392-3 0  9995
2 28493  98.2087 196.1476 0002796 274.9487  85.1405 14.79894209139730
SAUDICOMSAT 7           
1 31119U 07012C   26061.91371772  .00000811  00000+0  15426-3 0  9997
2 31119  98.3666  33.9472 0056021 168.2279 192.0249 14.65957326  6867
SAUDICOMSAT 6           
1 31121U 07012E   26061.83867394  .00001053  00000+0  21121-3 0  9999
2 31121  98.3976  27.4619 0070826 298.5266  60.8816 14.62416153  4648
SAUDICOMSAT 5           
1 31124U 07012H   26061.89847661  .00001033  00000+0  18630-3 0  9992
2 31124  98.3379  34.6994 0048822  99.7198 260.9525 14.67985303  8007
SAUDICOMSAT 3           
1 31125U 07012J   26062.17794938  .00001488  00000+0  25110-3 0  9998
2 31125  98.3037  35.5445 0040009  28.9506 331.3907 14.70502739  9242
SAUDICOMSAT 4           
1 31127U 07012L   26061.90801950  .00000810  00000+0  15892-3 0  9997
2 31127  98.3870  32.3928 0062504 229.7644 129.8081 14.64365548  5739
APRIZESAT 4             
1 35684U 09041D   26062.18062276  .00001031  00000+0  12998-3 0  9994
2 35684  98.1499 135.3688 0042311 306.4253  53.3062 14.83693098895648
APRIZESAT 3             
1 35686U 09041F   26061.95526449  .00002857  00000+0  25136-3 0  9992
2 35686  98.1882 210.2122 0063225  58.7086 302.0304 14.95865535900493
S-NET D                 
1 43186U 18014G   26061.67598887  .00007742  00000+0  41163-3 0  9996
2 43186  97.5450 327.1718 0009547  36.8925 323.2962 15.15513803442628
S-NET B                 
1 43187U 18014H   26062.14760818  .00007808  00000+0  41531-3 0  9997
2 43187  97.5456 327.6233 0010018  30.7648 329.4170 15.15493090442693
S-NET A                 
1 43188U 18014J   26062.13754568  .00007529  00000+0  40022-3 0  9996
2 43188  97.5465 327.8029 0009955  31.9926 328.1909 15.15527971442691
S-NET C                 
1 43189U 18014K   26062.15092223  .00007830  00000+0  41646-3 0  9990
2 43189  97.5479 327.8744 0011125  23.5048 336.6690 15.15485321441248
SALSAT                  
1 46495U 20068K   26061.92839164  .00011638  00000+0  42811-3 0  9998
2 46495  97.8846  58.6665 0008827 325.0587  35.0071 15.28017587299126
